stk.v.4.3 

BEGIN Ephemeris 
 
NumberOfEphemerisPoints		146 
ScenarioEpoch	    1 Sep 2020 17:39:50.033680201 
InterpolationMethod		Lagrange 
InterpolationOrder		5 
CentralBody				Earth 
CoordinateSystem			TEME 
CoordinateSystemEpoch	  1 Sep 2020 17:39:50.033680201 
DistanceUnit			Kilometers 
 
EphemerisTimePosVel 
 
       0.00000000   -4149.74491385    5798.52186935       0.03627588 -0.370686947 -0.277000296  7.463193913
 END Ephemeris 
